[
    {
        "Altitude(m)": 573904.9317705504,
        "Argument of Periapsis(deg)": 0.0,
        "Eccentricity": 0.0,
        "Inclination(deg)": 97.0,
        "Latitude(deg)": 61.37091238979588,
        "Longitude(deg)": -147.04247887786843,
        "Mean Anomaly(deg)": 117.93100000000001,
        "RAAN(deg)": 120.0,
        "Satellite Name": "Starlink Shell 3 1835",
        "Satellite Number": 1835,
        "Semi-Major Axis(m)": 6938478.169268562,
        "Time(s)": 0
    },
    {
        "Altitude(m)": 573780.2139592736,
        "Argument of Periapsis(deg)": -0.0003965466804030246,
        "Eccentricity": 0.0,
        "Inclination(deg)": 97.0,
        "Latitude(deg)": 60.766743043561654,
        "Longitude(deg)": -147.40744198778333,
        "Mean Anomaly(deg)": 118.55647619770505,
        "RAAN(deg)": 120.000104334274,
        "Satellite Name": "Starlink Shell 3 1835",
        "Satellite Number": 1835,
        "Semi-Major Axis(m)": 6938478.169268562,
        "Time(s)": 10
    },
    {
        "Altitude(m)": 573653.944817048,
        "Argument of Periapsis(deg)": -0.0007930933608060492,
        "Eccentricity": 0.0,
        "Inclination(deg)": 97.0,
        "Latitude(deg)": 60.16176214213755,
        "Longitude(deg)": -147.76047184819362,
        "Mean Anomaly(deg)": 119.1819523954101,
        "RAAN(deg)": 120.00020866854801,
        "Satellite Name": "Starlink Shell 3 1835",
        "Satellite Number": 1835,
        "Semi-Major Axis(m)": 6938478.169268562,
        "Time(s)": 20
    },
    {
        "Altitude(m)": 573526.1981358405,
        "Argument of Periapsis(deg)": -0.001189640041209074,
        "Eccentricity": 0.0,
        "Inclination(deg)": 97.0,
        "Latitude(deg)": 59.55601355853322,
        "Longitude(deg)": -148.102270305383,
        "Mean Anomaly(deg)": 119.80742859311515,
        "RAAN(deg)": 120.00031300282204,
        "Satellite Name": "Starlink Shell 3 1835",
        "Satellite Number": 1835,
        "Semi-Major Axis(m)": 6938478.169268562,
        "Time(s)": 30
    },
    {
        "Altitude(m)": 573397.048703287,
        "Argument of Periapsis(deg)": -0.0015861867216120985,
        "Eccentricity": 0.0,
        "Inclination(deg)": 97.0,
        "Latitude(deg)": 58.94953777176416,
        "Longitude(deg)": -148.433486268243,
        "Mean Anomaly(deg)": 120.43290479082019,
        "RAAN(deg)": 120.00041733709604,
        "Satellite Name": "Starlink Shell 3 1835",
        "Satellite Number": 1835,
        "Semi-Major Axis(m)": 6938478.169268562,
        "Time(s)": 40
    },
    {
        "Altitude(m)": 573266.5722663181,
        "Argument of Periapsis(deg)": -0.0019827334020151234,
        "Eccentricity": 0.0,
        "Inclination(deg)": 97.0,
        "Latitude(deg)": 58.34237218581262,
        "Longitude(deg)": -148.75472144302145,
        "Mean Anomaly(deg)": 121.05838098852524,
        "RAAN(deg)": 120.00052167137005,
        "Satellite Name": "Starlink Shell 3 1835",
        "Satellite Number": 1835,
        "Semi-Major Axis(m)": 6938478.169268562,
        "Time(s)": 50
    },
    {
        "Altitude(m)": 573134.8454942945,
        "Argument of Periapsis(deg)": -0.002379280082418148,
        "Eccentricity": 0.0,
        "Inclination(deg)": 97.0,
        "Latitude(deg)": 57.73455141419414,
        "Longitude(deg)": -149.06653406394184,
        "Mean Anomaly(deg)": 121.68385718623024,
        "RAAN(deg)": 120.00062600564404,
        "Satellite Name": "Starlink Shell 3 1835",
        "Satellite Number": 1835,
        "Semi-Major Axis(m)": 6938478.169268562,
        "Time(s)": 60
    },
    {
        "Altitude(m)": 573001.9459416175,
        "Argument of Periapsis(deg)": -0.002775826762821173,
        "Eccentricity": 0.0,
        "Inclination(deg)": 97.0,
        "Latitude(deg)": 57.12610753432667,
        "Longitude(deg)": -149.36944218975404,
        "Mean Anomaly(deg)": 122.30933338393525,
        "RAAN(deg)": 120.00073033991804,
        "Satellite Name": "Starlink Shell 3 1835",
        "Satellite Number": 1835,
        "Semi-Major Axis(m)": 6938478.169268562,
        "Time(s)": 70
    },
    {
        "Altitude(m)": 572867.952009861,
        "Argument of Periapsis(deg)": -0.003172373443224197,
        "Eccentricity": 0.0,
        "Inclination(deg)": 97.0,
        "Latitude(deg)": 56.517070315328944,
        "Longitude(deg)": -149.66392812900017,
        "Mean Anomaly(deg)": 122.9348095816404,
        "RAAN(deg)": 120.00083467419205,
        "Satellite Name": "Starlink Shell 3 1835",
        "Satellite Number": 1835,
        "Semi-Major Axis(m)": 6938478.169268562,
        "Time(s)": 80
    },
    {
        "Altitude(m)": 572732.9429094146,
        "Argument of Periapsis(deg)": -0.0035689201236272223,
        "Eccentricity": 0.0,
        "Inclination(deg)": 97.0,
        "Latitude(deg)": 55.90746742238939,
        "Longitude(deg)": -149.95044101187054,
        "Mean Anomaly(deg)": 123.56028577934538,
        "RAAN(deg)": 120.00093900846606,
        "Satellite Name": "Starlink Shell 3 1835",
        "Satellite Number": 1835,
        "Semi-Major Axis(m)": 6938478.169268562,
        "Time(s)": 90
    },
    {
        "Altitude(m)": 572596.9986207018,
        "Argument of Periapsis(deg)": -0.003965466804030247,
        "Eccentricity": 0.0,
        "Inclination(deg)": 97.0,
        "Latitude(deg)": 55.29732460043663,
        "Longitude(deg)": -150.22939905970372,
        "Mean Anomaly(deg)": 124.18576197705043,
        "RAAN(deg)": 120.00104334274008,
        "Satellite Name": "Starlink Shell 3 1835",
        "Satellite Number": 1835,
        "Semi-Major Axis(m)": 6938478.169268562,
        "Time(s)": 100
    },
    {
        "Altitude(m)": 572460.1998549212,
        "Argument of Periapsis(deg)": -0.004362013484433271,
        "Eccentricity": 0.0,
        "Inclination(deg)": 97.0,
        "Latitude(deg)": 54.68666583949433,
        "Longitude(deg)": -150.5011930984782,
        "Mean Anomaly(deg)": 124.81123817475547,
        "RAAN(deg)": 120.0011476770141,
        "Satellite Name": "Starlink Shell 3 1835",
        "Satellite Number": 1835,
        "Semi-Major Axis(m)": 6938478.169268562,
        "Time(s)": 110
    },
    {
        "Altitude(m)": 572322.6280143836,
        "Argument of Periapsis(deg)": -0.004758560164836296,
        "Eccentricity": 0.0,
        "Inclination(deg)": 97.0,
        "Latitude(deg)": 54.07551352378746,
        "Longitude(deg)": -150.76618831994378,
        "Mean Anomaly(deg)": 125.43671437246049,
        "RAAN(deg)": 120.0012520112881,
        "Satellite Name": "Starlink Shell 3 1835",
        "Satellite Number": 1835,
        "Semi-Major Axis(m)": 6938478.169268562,
        "Time(s)": 120
    },
    {
        "Altitude(m)": 572184.3651524443,
        "Argument of Periapsis(deg)": -0.005155106845239321,
        "Eccentricity": 0.0,
        "Inclination(deg)": 97.0,
        "Latitude(deg)": 53.46388856641575,
        "Longitude(deg)": -151.02472582911616,
        "Mean Anomaly(deg)": 126.06219057016557,
        "RAAN(deg)": 120.00135634556212,
        "Satellite Name": "Starlink Shell 3 1835",
        "Satellite Number": 1835,
        "Semi-Major Axis(m)": 6938478.169268562,
        "Time(s)": 130
    },
    {
        "Altitude(m)": 572045.4939330526,
        "Argument of Periapsis(deg)": -0.005551653525642346,
        "Eccentricity": 0.0,
        "Inclination(deg)": 97.0,
        "Latitude(deg)": 52.85181053118572,
        "Longitude(deg)": -151.2771255137741,
        "Mean Anomaly(deg)": 126.68766676787061,
        "RAAN(deg)": 120.00146067983611,
        "Satellite Name": "Starlink Shell 3 1835",
        "Satellite Number": 1835,
        "Semi-Major Axis(m)": 6938478.169268562,
        "Time(s)": 140
    },
    {
        "Altitude(m)": 571906.0975899185,
        "Argument of Periapsis(deg)": -0.005948200206045371,
        "Eccentricity": 0.0,
        "Inclination(deg)": 97.0,
        "Latitude(deg)": 52.23929774298672,
        "Longitude(deg)": -151.52368723030406,
        "Mean Anomaly(deg)": 127.31314296557566,
        "RAAN(deg)": 120.00156501411014,
        "Satellite Name": "Starlink Shell 3 1835",
        "Satellite Number": 1835,
        "Semi-Major Axis(m)": 6938478.169268562,
        "Time(s)": 150
    },
    {
        "Altitude(m)": 571766.2598853335,
        "Argument of Periapsis(deg)": -0.006344746886448394,
        "Eccentricity": 0.0,
        "Inclination(deg)": 97.0,
        "Latitude(deg)": 51.626367387940164,
        "Longitude(deg)": -151.76469183651068,
        "Mean Anomaly(deg)": 127.9386191632807,
        "RAAN(deg)": 120.00166934838414,
        "Satellite Name": "Starlink Shell 3 1835",
        "Satellite Number": 1835,
        "Semi-Major Axis(m)": 6938478.169268562,
        "Time(s)": 160
    },
    {
        "Altitude(m)": 571626.0650686574,
        "Argument of Periapsis(deg)": -0.00674129356685142,
        "Eccentricity": 0.0,
        "Inclination(deg)": 97.0,
        "Latitude(deg)": 51.013035604401864,
        "Longitude(deg)": -152.0004035999703,
        "Mean Anomaly(deg)": 128.56409536098576,
        "RAAN(deg)": 120.00177368265815,
        "Satellite Name": "Starlink Shell 3 1835",
        "Satellite Number": 1835,
        "Semi-Major Axis(m)": 6938478.169268562,
        "Time(s)": 170
    },
    {
        "Altitude(m)": 571485.5978345106,
        "Argument of Periapsis(deg)": -0.007137840247254445,
        "Eccentricity": 0.0,
        "Inclination(deg)": 97.0,
        "Latitude(deg)": 50.39931756576356,
        "Longitude(deg)": -152.23107097010165,
        "Mean Anomaly(deg)": 129.18957155869074,
        "RAAN(deg)": 120.00187801693214,
        "Satellite Name": "Starlink Shell 3 1835",
        "Satellite Number": 1835,
        "Semi-Major Axis(m)": 6938478.169268562,
        "Time(s)": 180
    }
]